STARLINK-36875          
1 68300U 26057G   26092.25003472 -.01327801  50493-3 -42263-2 0  9996
2 68300  97.2790 215.7362 0001426  52.3868 350.7741 15.91186646  3001
STARLINK-37099          
1 68301U 26057H   26092.25003472 -.01428000  57857-3 -45134-2 0  9991
2 68301  97.2783 215.7400 0001444  55.4519 356.1093 15.91339002  2829
STARLINK-37007          
1 68302U 26057J   26092.25003472 -.01531100  65878-3 -48235-2 0  9995
2 68302  97.2775 215.7436 0001469  59.0044   1.9267 15.91417631  3059
STARLINK-36300          
1 68303U 26057K   26092.25003472 -.01485356  62246-3 -46908-2 0  9998
2 68303  97.2778 215.7417 0001704  67.2252 349.3000 15.91362772  3099
STARLINK-36849          
1 68304U 26057L   26092.25003472 -.01531136  65920-3 -48088-2 0  9990
2 68304  97.2776 215.7455 0001457  56.5039   8.1564 15.91477998  3002
STARLINK-36277          
1 68305U 26057M   26092.25003472 -.01541666  66819-3 -48212-2 0  9997
2 68305  97.2766 215.7481 0001565  56.3782  16.6078 15.91562958  3155
STARLINK-36307          
1 68306U 26057N   26092.25003472 -.01538854  66584-3 -48160-2 0  9994
2 68306  97.2774 215.7472 0001548  55.4491  12.8938 15.91547942  3095
STARLINK-36264          
1 68307U 26057P   26092.25003472 -.01556345  68009-3 -48654-2 0  9992
2 68307  97.2768 215.7505 0001619  55.4129  22.4540 15.91571587  3158
STARLINK-37138          
1 68308U 26057Q   26092.25003472 -.01555862  68026-3 -48432-2 0  9999
2 68308  97.2761 215.7513 0001578  58.6926  22.5488 15.91655120  2837
STARLINK-37149          
1 68309U 26057R   26092.25003472 -.01559652  68371-3 -48415-2 0  9995
2 68309  97.2756 215.7528 0001582  54.5814  30.6398 15.91710088  2941
STARLINK-37148          
1 68310U 26057S   26092.25003472 -.01560351  68491-3 -48208-2 0  9998
2 68310  97.2753 215.7565 0001686  56.2654  37.1727 15.91802562  3057
STARLINK-37140          
1 68311U 26057T   26092.25003472 -.01560925  68500-3 -48361-2 0  9997
2 68311  97.2758 215.7544 0001675  55.4958  34.0022 15.91747684  3200
