CCSDS_OMM_VERS = 2.0
CREATION_DATE  = 
ORIGINATOR     = 

OBJECT_NAME    = STARLINK-36875
OBJECT_ID      = 2026-057G
CENTER_NAME    = EARTH
REF_FRAME      = TEME
TIME_SYSTEM    = UTC
MEAN_ELEMENT_THEORY = SGP/SGP4

EPOCH          = 2026-04-02T06:00:02.999808
MEAN_MOTION    = 15.91186646
ECCENTRICITY   = .00014269
INCLINATION    = 97.2790
RA_OF_ASC_NODE = 215.7362
ARG_OF_PERICENTER = 52.3868
MEAN_ANOMALY   = 350.7741

EPHEMERIS_TYPE = 0
CLASSIFICATION_TYPE = U
NORAD_CAT_ID   = 68300
ELEMENT_SET_NO = 999
REV_AT_EPOCH   = 300
BSTAR          = -.42262988E-2
MEAN_MOTION_DOT = -.1327801E-1
MEAN_MOTION_DDOT = .50493418E-3

CCSDS_OMM_VERS = 2.0
CREATION_DATE  = 
ORIGINATOR     = 

OBJECT_NAME    = STARLINK-37099
OBJECT_ID      = 2026-057H
CENTER_NAME    = EARTH
REF_FRAME      = TEME
TIME_SYSTEM    = UTC
MEAN_ELEMENT_THEORY = SGP/SGP4

EPOCH          = 2026-04-02T06:00:02.999808
MEAN_MOTION    = 15.91339002
ECCENTRICITY   = .00014443
INCLINATION    = 97.2783
RA_OF_ASC_NODE = 215.7400
ARG_OF_PERICENTER = 55.4519
MEAN_ANOMALY   = 356.1093

EPHEMERIS_TYPE = 0
CLASSIFICATION_TYPE = U
NORAD_CAT_ID   = 68301
ELEMENT_SET_NO = 999
REV_AT_EPOCH   = 282
BSTAR          = -.4513402E-2
MEAN_MOTION_DOT = -.1428E-1
MEAN_MOTION_DDOT = .5785665E-3

CCSDS_OMM_VERS = 2.0
CREATION_DATE  = 
ORIGINATOR     = 

OBJECT_NAME    = STARLINK-37007
OBJECT_ID      = 2026-057J
CENTER_NAME    = EARTH
REF_FRAME      = TEME
TIME_SYSTEM    = UTC
MEAN_ELEMENT_THEORY = SGP/SGP4

EPOCH          = 2026-04-02T06:00:02.999808
MEAN_MOTION    = 15.91417631
ECCENTRICITY   = .00014698
INCLINATION    = 97.2775
RA_OF_ASC_NODE = 215.7436
ARG_OF_PERICENTER = 59.0044
MEAN_ANOMALY   = 1.9267

EPHEMERIS_TYPE = 0
CLASSIFICATION_TYPE = U
NORAD_CAT_ID   = 68302
ELEMENT_SET_NO = 999
REV_AT_EPOCH   = 305
BSTAR          = -.48235072E-2
MEAN_MOTION_DOT = -.15311E-1
MEAN_MOTION_DDOT = .65877887E-3

CCSDS_OMM_VERS = 2.0
CREATION_DATE  = 
ORIGINATOR     = 

OBJECT_NAME    = STARLINK-36300
OBJECT_ID      = 2026-057K
CENTER_NAME    = EARTH
REF_FRAME      = TEME
TIME_SYSTEM    = UTC
MEAN_ELEMENT_THEORY = SGP/SGP4

EPOCH          = 2026-04-02T06:00:02.999808
MEAN_MOTION    = 15.91362772
ECCENTRICITY   = .00017046
INCLINATION    = 97.2778
RA_OF_ASC_NODE = 215.7417
ARG_OF_PERICENTER = 67.2252
MEAN_ANOMALY   = 349.3000

EPHEMERIS_TYPE = 0
CLASSIFICATION_TYPE = U
NORAD_CAT_ID   = 68303
ELEMENT_SET_NO = 999
REV_AT_EPOCH   = 309
BSTAR          = -.46907865E-2
MEAN_MOTION_DOT = -.1485356E-1
MEAN_MOTION_DDOT = .62245614E-3

CCSDS_OMM_VERS = 2.0
CREATION_DATE  = 
ORIGINATOR     = 

OBJECT_NAME    = STARLINK-36849
OBJECT_ID      = 2026-057L
CENTER_NAME    = EARTH
REF_FRAME      = TEME
TIME_SYSTEM    = UTC
MEAN_ELEMENT_THEORY = SGP/SGP4

EPOCH          = 2026-04-02T06:00:02.999808
MEAN_MOTION    = 15.91477998
ECCENTRICITY   = .00014577
INCLINATION    = 97.2776
RA_OF_ASC_NODE = 215.7455
ARG_OF_PERICENTER = 56.5039
MEAN_ANOMALY   = 8.1564

EPHEMERIS_TYPE = 0
CLASSIFICATION_TYPE = U
NORAD_CAT_ID   = 68304
ELEMENT_SET_NO = 999
REV_AT_EPOCH   = 300
BSTAR          = -.48087994E-2
MEAN_MOTION_DOT = -.1531136E-1
MEAN_MOTION_DDOT = .65920347E-3

CCSDS_OMM_VERS = 2.0
CREATION_DATE  = 
ORIGINATOR     = 

OBJECT_NAME    = STARLINK-36277
OBJECT_ID      = 2026-057M
CENTER_NAME    = EARTH
REF_FRAME      = TEME
TIME_SYSTEM    = UTC
MEAN_ELEMENT_THEORY = SGP/SGP4

EPOCH          = 2026-04-02T06:00:02.999808
MEAN_MOTION    = 15.91562958
ECCENTRICITY   = .00015653
INCLINATION    = 97.2766
RA_OF_ASC_NODE = 215.7481
ARG_OF_PERICENTER = 56.3782
MEAN_ANOMALY   = 16.6078

EPHEMERIS_TYPE = 0
CLASSIFICATION_TYPE = U
NORAD_CAT_ID   = 68305
ELEMENT_SET_NO = 999
REV_AT_EPOCH   = 315
BSTAR          = -.48212125E-2
MEAN_MOTION_DOT = -.1541666E-1
MEAN_MOTION_DDOT = .66819057E-3

CCSDS_OMM_VERS = 2.0
CREATION_DATE  = 
ORIGINATOR     = 

OBJECT_NAME    = STARLINK-36307
OBJECT_ID      = 2026-057N
CENTER_NAME    = EARTH
REF_FRAME      = TEME
TIME_SYSTEM    = UTC
MEAN_ELEMENT_THEORY = SGP/SGP4

EPOCH          = 2026-04-02T06:00:02.999808
MEAN_MOTION    = 15.91547942
ECCENTRICITY   = .00015485
INCLINATION    = 97.2774
RA_OF_ASC_NODE = 215.7472
ARG_OF_PERICENTER = 55.4491
MEAN_ANOMALY   = 12.8938

EPHEMERIS_TYPE = 0
CLASSIFICATION_TYPE = U
NORAD_CAT_ID   = 68306
ELEMENT_SET_NO = 999
REV_AT_EPOCH   = 309
BSTAR          = -.48160216E-2
MEAN_MOTION_DOT = -.1538854E-1
MEAN_MOTION_DDOT = .66583534E-3

CCSDS_OMM_VERS = 2.0
CREATION_DATE  = 
ORIGINATOR     = 

OBJECT_NAME    = STARLINK-36264
OBJECT_ID      = 2026-057P
CENTER_NAME    = EARTH
REF_FRAME      = TEME
TIME_SYSTEM    = UTC
MEAN_ELEMENT_THEORY = SGP/SGP4

EPOCH          = 2026-04-02T06:00:02.999808
MEAN_MOTION    = 15.91571587
ECCENTRICITY   = .00016198
INCLINATION    = 97.2768
RA_OF_ASC_NODE = 215.7505
ARG_OF_PERICENTER = 55.4129
MEAN_ANOMALY   = 22.4540

EPHEMERIS_TYPE = 0
CLASSIFICATION_TYPE = U
NORAD_CAT_ID   = 68307
ELEMENT_SET_NO = 999
REV_AT_EPOCH   = 315
BSTAR          = -.48654494E-2
MEAN_MOTION_DOT = -.1556345E-1
MEAN_MOTION_DDOT = .6800855E-3

CCSDS_OMM_VERS = 2.0
CREATION_DATE  = 
ORIGINATOR     = 

OBJECT_NAME    = STARLINK-37138
OBJECT_ID      = 2026-057Q
CENTER_NAME    = EARTH
REF_FRAME      = TEME
TIME_SYSTEM    = UTC
MEAN_ELEMENT_THEORY = SGP/SGP4

EPOCH          = 2026-04-02T06:00:02.999808
MEAN_MOTION    = 15.91655120
ECCENTRICITY   = .00015782
INCLINATION    = 97.2761
RA_OF_ASC_NODE = 215.7513
ARG_OF_PERICENTER = 58.6926
MEAN_ANOMALY   = 22.5488

EPHEMERIS_TYPE = 0
CLASSIFICATION_TYPE = U
NORAD_CAT_ID   = 68308
ELEMENT_SET_NO = 999
REV_AT_EPOCH   = 283
BSTAR          = -.48432364E-2
MEAN_MOTION_DOT = -.1555862E-1
MEAN_MOTION_DDOT = .6802592E-3

CCSDS_OMM_VERS = 2.0
CREATION_DATE  = 
ORIGINATOR     = 

OBJECT_NAME    = STARLINK-37149
OBJECT_ID      = 2026-057R
CENTER_NAME    = EARTH
REF_FRAME      = TEME
TIME_SYSTEM    = UTC
MEAN_ELEMENT_THEORY = SGP/SGP4

EPOCH          = 2026-04-02T06:00:02.999808
MEAN_MOTION    = 15.91710088
ECCENTRICITY   = .00015822
INCLINATION    = 97.2756
RA_OF_ASC_NODE = 215.7528
ARG_OF_PERICENTER = 54.5814
MEAN_ANOMALY   = 30.6398

EPHEMERIS_TYPE = 0
CLASSIFICATION_TYPE = U
NORAD_CAT_ID   = 68309
ELEMENT_SET_NO = 999
REV_AT_EPOCH   = 294
BSTAR          = -.48415356E-2
MEAN_MOTION_DOT = -.1559652E-1
MEAN_MOTION_DDOT = .68370882E-3

CCSDS_OMM_VERS = 2.0
CREATION_DATE  = 
ORIGINATOR     = 

OBJECT_NAME    = STARLINK-37148
OBJECT_ID      = 2026-057S
CENTER_NAME    = EARTH
REF_FRAME      = TEME
TIME_SYSTEM    = UTC
MEAN_ELEMENT_THEORY = SGP/SGP4

EPOCH          = 2026-04-02T06:00:02.999808
MEAN_MOTION    = 15.91802562
ECCENTRICITY   = .00016864
INCLINATION    = 97.2753
RA_OF_ASC_NODE = 215.7565
ARG_OF_PERICENTER = 56.2654
MEAN_ANOMALY   = 37.1727

EPHEMERIS_TYPE = 0
CLASSIFICATION_TYPE = U
NORAD_CAT_ID   = 68310
ELEMENT_SET_NO = 999
REV_AT_EPOCH   = 305
BSTAR          = -.48207818E-2
MEAN_MOTION_DOT = -.1560351E-1
MEAN_MOTION_DDOT = .68490864E-3

CCSDS_OMM_VERS = 2.0
CREATION_DATE  = 
ORIGINATOR     = 

OBJECT_NAME    = STARLINK-37140
OBJECT_ID      = 2026-057T
CENTER_NAME    = EARTH
REF_FRAME      = TEME
TIME_SYSTEM    = UTC
MEAN_ELEMENT_THEORY = SGP/SGP4

EPOCH          = 2026-04-02T06:00:02.999808
MEAN_MOTION    = 15.91747684
ECCENTRICITY   = .00016757
INCLINATION    = 97.2758
RA_OF_ASC_NODE = 215.7544
ARG_OF_PERICENTER = 55.4958
MEAN_ANOMALY   = 34.0022

EPHEMERIS_TYPE = 0
CLASSIFICATION_TYPE = U
NORAD_CAT_ID   = 68311
ELEMENT_SET_NO = 999
REV_AT_EPOCH   = 320
BSTAR          = -.48361481E-2
MEAN_MOTION_DOT = -.1560925E-1
MEAN_MOTION_DDOT = .68500005E-3

